<?xml version="1.0" encoding="UTF-8"?>
<kml xmlns="http://www.opengis.net/kml/2.2">
  <Document>
    <name>Mappa senza titolo</name>
    <description/>
    <Style id="icon-1899-0288D1-nodesc-normal">
      <IconStyle>
        <color>ffd18802</color>
        <scale>1</scale>
        <Icon>
          <href>https://www.gstatic.com/mapspro/images/stock/503-wht-blank_maps.png</href>
        </Icon>
        <hotSpot x="32" xunits="pixels" y="64" yunits="insetPixels"/>
      </IconStyle>
      <LabelStyle>
        <scale>0</scale>
      </LabelStyle>
      <BalloonStyle>
        <text><![CDATA[<h3>$[name]</h3>]]></text>
      </BalloonStyle>
    </Style>
    <Style id="icon-1899-0288D1-nodesc-highlight">
      <IconStyle>
        <color>ffd18802</color>
        <scale>1</scale>
        <Icon>
          <href>https://www.gstatic.com/mapspro/images/stock/503-wht-blank_maps.png</href>
        </Icon>
        <hotSpot x="32" xunits="pixels" y="64" yunits="insetPixels"/>
      </IconStyle>
      <LabelStyle>
        <scale>1</scale>
      </LabelStyle>
      <BalloonStyle>
        <text><![CDATA[<h3>$[name]</h3>]]></text>
      </BalloonStyle>
    </Style>
    <StyleMap id="icon-1899-0288D1-nodesc">
      <Pair>
        <key>normal</key>
        <styleUrl>#icon-1899-0288D1-nodesc-normal</styleUrl>
      </Pair>
      <Pair>
        <key>highlight</key>
        <styleUrl>#icon-1899-0288D1-nodesc-highlight</styleUrl>
      </Pair>
    </StyleMap>
    <Style id="icon-1899-DB4436-nodesc-normal">
      <IconStyle>
        <color>ff3644db</color>
        <scale>1</scale>
        <Icon>
          <href>https://www.gstatic.com/mapspro/images/stock/503-wht-blank_maps.png</href>
        </Icon>
        <hotSpot x="32" xunits="pixels" y="64" yunits="insetPixels"/>
      </IconStyle>
      <LabelStyle>
        <scale>0</scale>
      </LabelStyle>
      <BalloonStyle>
        <text><![CDATA[<h3>$[name]</h3>]]></text>
      </BalloonStyle>
    </Style>
    <Style id="icon-1899-DB4436-nodesc-highlight">
      <IconStyle>
        <color>ff3644db</color>
        <scale>1</scale>
        <Icon>
          <href>https://www.gstatic.com/mapspro/images/stock/503-wht-blank_maps.png</href>
        </Icon>
        <hotSpot x="32" xunits="pixels" y="64" yunits="insetPixels"/>
      </IconStyle>
      <LabelStyle>
        <scale>1</scale>
      </LabelStyle>
      <BalloonStyle>
        <text><![CDATA[<h3>$[name]</h3>]]></text>
      </BalloonStyle>
    </Style>
    <StyleMap id="icon-1899-DB4436-nodesc">
      <Pair>
        <key>normal</key>
        <styleUrl>#icon-1899-DB4436-nodesc-normal</styleUrl>
      </Pair>
      <Pair>
        <key>highlight</key>
        <styleUrl>#icon-1899-DB4436-nodesc-highlight</styleUrl>
      </Pair>
    </StyleMap>
    <Style id="line-000000-1200-nodesc-normal">
      <LineStyle>
        <color>ff000000</color>
        <width>1.2</width>
      </LineStyle>
      <BalloonStyle>
        <text><![CDATA[<h3>$[name]</h3>]]></text>
      </BalloonStyle>
    </Style>
    <Style id="line-000000-1200-nodesc-highlight">
      <LineStyle>
        <color>ff000000</color>
        <width>1.8</width>
      </LineStyle>
      <BalloonStyle>
        <text><![CDATA[<h3>$[name]</h3>]]></text>
      </BalloonStyle>
    </Style>
    <StyleMap id="line-000000-1200-nodesc">
      <Pair>
        <key>normal</key>
        <styleUrl>#line-000000-1200-nodesc-normal</styleUrl>
      </Pair>
      <Pair>
        <key>highlight</key>
        <styleUrl>#line-000000-1200-nodesc-highlight</styleUrl>
      </Pair>
    </StyleMap>
    <Style id="line-1267FF-5000-nodesc-normal">
      <LineStyle>
        <color>ffff6712</color>
        <width>5</width>
      </LineStyle>
      <BalloonStyle>
        <text><![CDATA[<h3>$[name]</h3>]]></text>
      </BalloonStyle>
    </Style>
    <Style id="line-1267FF-5000-nodesc-highlight">
      <LineStyle>
        <color>ffff6712</color>
        <width>7.5</width>
      </LineStyle>
      <BalloonStyle>
        <text><![CDATA[<h3>$[name]</h3>]]></text>
      </BalloonStyle>
    </Style>
    <StyleMap id="line-1267FF-5000-nodesc">
      <Pair>
        <key>normal</key>
        <styleUrl>#line-1267FF-5000-nodesc-normal</styleUrl>
      </Pair>
      <Pair>
        <key>highlight</key>
        <styleUrl>#line-1267FF-5000-nodesc-highlight</styleUrl>
      </Pair>
    </StyleMap>
    <Folder>
      <name>Percorso principale cavalli</name>
      <Placemark>
        <name>Percorso principale cavalli</name>
        <styleUrl>#line-1267FF-5000-nodesc</styleUrl>
        <LineString>
          <tessellate>1</tessellate>
          <coordinates>
            14.97568,40.96257,0
            14.97574,40.96227,0
            14.97562,40.96217,0
            14.97527,40.96193,0
            14.97525,40.96189,0
            14.97522,40.96181,0
            14.97521,40.96177,0
            14.9752,40.96173,0
            14.97517,40.96164,0
            14.97515,40.96157,0
            14.97515,40.96155,0
            14.97512,40.96145,0
            14.97503,40.96122,0
            14.97501,40.96115,0
            14.97497,40.96109,0
            14.97494,40.96105,0
            14.97491,40.96103,0
            14.9749,40.96102,0
            14.97473,40.96094,0
            14.9745,40.96083,0
            14.97439,40.96078,0
            14.97437,40.96074,0
            14.97434,40.96059,0
            14.9743,40.96047,0
            14.97426,40.96037,0
            14.97417,40.96021,0
            14.97414,40.96017,0
            14.97404,40.96005,0
            14.97385,40.95985,0
            14.97374,40.95972,0
            14.97368,40.95966,0
            14.97368,40.95963,0
            14.97368,40.95959,0
            14.97364,40.95948,0
            14.97357,40.95931,0
            14.97351,40.95914,0
            14.97344,40.95897,0
            14.97341,40.95887,0
            14.97338,40.95883,0
            14.97334,40.9588,0
            14.97333,40.95876,0
            14.97332,40.95874,0
            14.97327,40.95871,0
            14.97322,40.95869,0
            14.97288,40.95858,0
            14.97285,40.95856,0
            14.97265,40.95846,0
            14.97255,40.9584,0
            14.97254,40.95838,0
            14.97255,40.95838,0
            14.97255,40.95837,0
            14.97256,40.95837,0
            14.97258,40.95836,0
            14.97261,40.95837,0
            14.97272,40.95841,0
            14.97293,40.9585,0
            14.97295,40.9585,0
            14.97306,40.95854,0
            14.9731,40.95854,0
            14.97313,40.95854,0
            14.97316,40.95853,0
            14.97319,40.95851,0
            14.97319,40.95849,0
            14.9732,40.95846,0
            14.9732,40.95843,0
            14.97319,40.9584,0
            14.97316,40.95837,0
            14.9731,40.95833,0
            14.97308,40.95832,0
            14.97303,40.9583,0
            14.97297,40.95827,0
            14.97289,40.95822,0
            14.97281,40.95815,0
            14.97275,40.95808,0
            14.97263,40.95793,0
            14.97257,40.95792,0
            14.97248,40.95781,0
            14.97247,40.95779,0
            14.9723,40.95759,0
            14.97223,40.95754,0
            14.97211,40.95747,0
            14.97202,40.95743,0
            14.97186,40.95737,0
            14.97176,40.95735,0
            14.97169,40.95733,0
            14.9715,40.95729,0
            14.97102,40.9572,0
            14.97096,40.95727,0
            14.97081,40.95741,0
            14.97076,40.95746,0
            14.97067,40.95756,0
            14.97063,40.95762,0
            14.97055,40.95772,0
            14.97053,40.95775,0
            14.97048,40.9578,0
            14.97045,40.95783,0
            14.9704,40.95785,0
            14.97039,40.95786,0
            14.97033,40.95788,0
            14.97027,40.95789,0
            14.97017,40.95788,0
            14.97014,40.95812,0
            14.97014,40.95819,0
            14.97015,40.95823,0
            14.97018,40.95828,0
            14.97021,40.95831,0
            14.97022,40.95834,0
            14.97023,40.95844,0
            14.97022,40.9585,0
            14.97019,40.95856,0
            14.97015,40.95865,0
            14.97005,40.95877,0
            14.97003,40.95879,0
            14.96994,40.95894,0
            14.97003,40.95894,0
            14.97011,40.95894,0
            14.97018,40.95893,0
            14.97039,40.9589,0
            14.97046,40.95888,0
            14.97054,40.95885,0
            14.97062,40.9588,0
            14.97081,40.9587,0
            14.9709,40.95865,0
            14.97097,40.95861,0
            14.971,40.95859,0
            14.97108,40.95856,0
            14.97119,40.95851,0
            14.97128,40.9585,0
            14.97138,40.95849,0
            14.9715,40.95848,0
            14.97161,40.95849,0
            14.97169,40.9585,0
            14.97173,40.95851,0
            14.9718,40.95852,0
            14.97186,40.95855,0
            14.97193,40.9586,0
            14.97199,40.95864,0
            14.97203,40.95867,0
            14.97208,40.95869,0
            14.97212,40.95871,0
            14.97217,40.95871,0
            14.97221,40.95871,0
            14.97232,40.95869,0
            14.97261,40.95882,0
            14.97281,40.95891,0
            14.97294,40.95896,0
            14.97299,40.959,0
            14.97302,40.95902,0
            14.97303,40.95902,0
            14.97314,40.95913,0
            14.97339,40.95938,0
            14.9736,40.9596,0
            14.97371,40.95969,0
            14.97374,40.95972,0
            14.97385,40.95985,0
            14.97404,40.96005,0
            14.97414,40.96017,0
            14.97417,40.96021,0
            14.97426,40.96037,0
            14.9743,40.96047,0
            14.97434,40.96059,0
            14.97437,40.96074,0
            14.97439,40.96078,0
            14.9745,40.96083,0
            14.97473,40.96094,0
            14.9749,40.96102,0
            14.97491,40.96103,0
            14.97494,40.96105,0
            14.97497,40.96109,0
            14.97501,40.96115,0
            14.97503,40.96122,0
            14.97512,40.96145,0
            14.97515,40.96155,0
            14.97515,40.96157,0
            14.97517,40.96164,0
            14.9752,40.96173,0
            14.97521,40.96177,0
            14.97522,40.96181,0
            14.97525,40.96189,0
            14.97527,40.96193,0
            14.97562,40.96217,0
            14.97574,40.96227,0
            14.97582,40.96232,0
            14.97608,40.96251,0
            14.97621,40.9626,0
            14.97628,40.96266,0
            14.97631,40.9627,0
            14.97633,40.96277,0
            14.97635,40.96296,0
            14.97637,40.96313,0
            14.97607,40.96318,0
            14.9761,40.96324,0
            14.97594,40.96326,0
            14.9757,40.96327,0
            14.97569,40.96293,0
            14.97568,40.96275,0
            14.97567,40.9626,0
            14.97558,40.96262,0
            14.97556,40.96263,0
            14.97553,40.96265,0
            14.9755,40.96268,0
            14.97548,40.96272,0
            14.97547,40.96279,0
            14.97547,40.96284,0
            14.97548,40.96297,0
            14.9755,40.9631,0
            14.97552,40.96337,0
            14.97552,40.96342,0
            14.97552,40.96363,0
            14.9755,40.96367,0
            14.97547,40.96371,0
            14.97544,40.96375,0
            14.97527,40.9638,0
            14.97527,40.96383,0
            14.97529,40.96405,0
            14.97532,40.96411,0
            14.97538,40.96419,0
            14.9754,40.96421,0
            14.97549,40.96434,0
            14.97563,40.96452,0
            14.97572,40.96463,0
            14.97578,40.96464,0
            14.97586,40.96464,0
            14.97601,40.9646,0
            14.97637,40.96446,0
            14.9763,40.96437,0
            14.97618,40.96422,0
            14.97616,40.96419,0
            14.97596,40.96397,0
            14.97593,40.96393,0
            14.97586,40.96383,0
            14.97581,40.96376,0
            14.97576,40.9636,0
            14.97573,40.96352,0
            14.97571,40.96339,0
            14.9757,40.96326,0
            14.97569,40.96293,0
            14.97568,40.96275,0
            14.97567,40.9626,0
            14.97574,40.96227,0
            14.97562,40.96217,0
            14.97527,40.96193,0
            14.97525,40.96189,0
            14.97522,40.96181,0
            14.97521,40.96177,0
            14.9752,40.96173,0
            14.97517,40.96164,0
            14.97515,40.96157,0
            14.97515,40.96155,0
            14.97512,40.96145,0
            14.97503,40.96122,0
            14.97501,40.96115,0
            14.97497,40.96109,0
            14.97494,40.96105,0
            14.97491,40.96103,0
            14.9749,40.96102,0
            14.97473,40.96094,0
            14.9745,40.96083,0
            14.97439,40.96078,0
            14.97441,40.96109,0
            14.97452,40.96167,0
            14.97449,40.96176,0
            14.97448,40.96184,0
            14.97443,40.96199,0
            14.97439,40.96205,0
            14.97433,40.96215,0
            14.97431,40.96221,0
            14.9743,40.96225,0
            14.97429,40.96231,0
            14.97429,40.96233,0
            14.9743,40.96239,0
            14.97434,40.96247,0
            14.97437,40.96255,0
            14.97438,40.96257,0
            14.97444,40.96272,0
            14.97445,40.9628,0
            14.97446,40.96287,0
            14.97444,40.96294,0
            14.97442,40.96301,0
            14.97429,40.96321,0
            14.97424,40.96331,0
            14.9742,40.96341,0
            14.97419,40.96345,0
            14.97403,40.96393,0
            14.97402,40.96395,0
            14.97398,40.96407,0
            14.97395,40.96413,0
            14.97387,40.9643,0
            14.97379,40.96439,0
            14.97372,40.96446,0
            14.97359,40.96459,0
            14.97348,40.9646,0
            14.97333,40.9647,0
            14.97303,40.96485,0
            14.97274,40.96504,0
            14.97262,40.96513,0
            14.97257,40.96517,0
            14.97246,40.96528,0
            14.97242,40.96534,0
            14.9724,40.96539,0
            14.9724,40.96544,0
            14.97241,40.96546,0
            14.97241,40.96548,0
            14.97242,40.96549,0
            14.97246,40.96552,0
            14.97251,40.96555,0
            14.97257,40.96557,0
            14.97264,40.96556,0
            14.97268,40.96556,0
            14.97285,40.96557,0
            14.97287,40.96557,0
            14.97288,40.96557,0
            14.97304,40.96562,0
            14.97308,40.96563,0
            14.97314,40.96566,0
            14.9732,40.96568,0
            14.97323,40.96571,0
            14.97326,40.96575,0
            14.97333,40.9659,0
            14.97334,40.96592,0
            14.97351,40.96623,0
            14.9736,40.96639,0
            14.97369,40.96655,0
            14.97369,40.96656,0
            14.97374,40.96669,0
            14.97377,40.96681,0
            14.97378,40.96684,0
            14.97378,40.96687,0
            14.9738,40.96699,0
            14.97393,40.96709,0
            14.97418,40.96722,0
            14.97438,40.96732,0
            14.97449,40.96737,0
            14.97457,40.96742,0
            14.97513,40.96775,0
            14.97528,40.96784,0
            14.97534,40.96786,0
            14.9754,40.96788,0
            14.9755,40.96789,0
            14.97558,40.9679,0
            14.97567,40.9679,0
            14.97637,40.96786,0
            14.97654,40.96784,0
            14.97678,40.96781,0
            14.97697,40.96779,0
            14.97711,40.96774,0
            14.97727,40.96766,0
            14.97738,40.96753,0
            14.97762,40.96722,0
            14.97763,40.96721,0
            14.97763,40.9672,0
            14.97764,40.9672,0
            14.97765,40.9672,0
            14.97766,40.96719,0
            14.97767,40.96719,0
            14.97768,40.96719,0
            14.97768,40.9672,0
            14.97769,40.9672,0
            14.9777,40.96721,0
            14.9777,40.96722,0
            14.97758,40.96743,0
            14.97748,40.96761,0
            14.97743,40.96778,0
            14.97741,40.96796,0
            14.97741,40.96827,0
            14.97741,40.96833,0
            14.9774,40.96845,0
            14.97738,40.96857,0
            14.97735,40.96869,0
            14.97729,40.96879,0
            14.97718,40.96888,0
            14.97714,40.9689,0
            14.97707,40.96894,0
            14.97693,40.96898,0
            14.97685,40.969,0
            14.9768,40.969,0
            14.97677,40.96901,0
            14.97675,40.96901,0
            14.97671,40.969,0
            14.97668,40.969,0
            14.97666,40.969,0
            14.9765,40.96896,0
            14.97627,40.9689,0
            14.97626,40.9689,0
            14.97624,40.9689,0
            14.97621,40.96889,0
            14.97618,40.96889,0
            14.97616,40.9689,0
            14.97614,40.9689,0
            14.97612,40.96892,0
            14.9761,40.96894,0
            14.97609,40.96896,0
            14.97609,40.96897,0
            14.9761,40.96899,0
            14.9761,40.96901,0
            14.97611,40.96902,0
            14.97612,40.96904,0
            14.97613,40.96904,0
            14.97614,40.96905,0
            14.97625,40.96911,0
            14.97633,40.96915,0
            14.97649,40.96923,0
            14.97653,40.96925,0
            14.97664,40.96928,0
            14.97683,40.96931,0
            14.97717,40.96933,0
            14.97748,40.96937,0
            14.9775,40.96937,0
            14.97778,40.96936,0
            14.97802,40.96926,0
            14.97806,40.96925,0
            14.97809,40.96925,0
            14.97813,40.96925,0
            14.97817,40.96924,0
            14.97825,40.96924,0
            14.97838,40.96926,0
            14.97856,40.96934,0
            14.97862,40.96935,0
            14.97869,40.96935,0
            14.97874,40.96935,0
            14.97883,40.96933,0
            14.97886,40.96931,0
            14.97891,40.96929,0
            14.97896,40.96925,0
            14.97903,40.9692,0
            14.97905,40.96918,0
            14.9791,40.96911,0
            14.97923,40.96885,0
            14.97934,40.96849,0
            14.97937,40.96838,0
            14.97944,40.96828,0
            14.97945,40.96828,0
            14.97946,40.96828,0
            14.97947,40.96828,0
            14.97948,40.96829,0
            14.97949,40.96829,0
            14.9795,40.96829,0
            14.9795,40.9683,0
            14.97951,40.9683,0
            14.97951,40.96831,0
            14.97952,40.96831,0
            14.97952,40.96832,0
            14.97952,40.96833,0
            14.9795,40.96847,0
            14.97948,40.96865,0
            14.97948,40.96871,0
            14.97949,40.96883,0
            14.9795,40.96893,0
            14.97952,40.96897,0
            14.97956,40.96899,0
            14.97959,40.96899,0
            14.97962,40.969,0
            14.97964,40.96899,0
            14.97966,40.96899,0
            14.97969,40.96898,0
            14.97971,40.96896,0
            14.97974,40.96893,0
            14.97976,40.96882,0
            14.97978,40.96874,0
            14.97988,40.96849,0
            14.98006,40.96827,0
            14.98017,40.96818,0
            14.98025,40.96813,0
            14.98026,40.96813,0
            14.98027,40.96813,0
            14.98029,40.96814,0
            14.9803,40.96814,0
            14.98031,40.96816,0
            14.9803,40.96817,0
            14.98028,40.96822,0
            14.98018,40.96833,0
            14.98014,40.96843,0
            14.98012,40.96846,0
            14.98011,40.96861,0
            14.9801,40.96871,0
            14.9801,40.9688,0
            14.98012,40.96904,0
            14.98011,40.96916,0
            14.98009,40.96929,0
            14.98004,40.96937,0
            14.97989,40.96962,0
            14.97987,40.96968,0
            14.97984,40.96985,0
            14.97995,40.9702,0
            14.98002,40.97021,0
            14.9802,40.97032,0
            14.9803,40.97038,0
            14.98039,40.97042,0
            14.9806,40.97051,0
            14.98082,40.97061,0
            14.98119,40.97081,0
            14.98126,40.97084,0
            14.98139,40.97091,0
            14.98159,40.97101,0
            14.98173,40.97108,0
            14.9818,40.9711,0
            14.98185,40.97102,0
            14.98188,40.97097,0
            14.9819,40.9709,0
            14.9819,40.97084,0
            14.9819,40.9708,0
            14.98182,40.97064,0
            14.9818,40.97059,0
            14.98174,40.97047,0
            14.98172,40.97042,0
            14.98171,40.9704,0
            14.98169,40.97034,0
            14.98169,40.97026,0
            14.98169,40.97021,0
            14.98171,40.97016,0
            14.98171,40.97015,0
            14.98172,40.97012,0
            14.98173,40.97009,0
            14.98176,40.97005,0
            14.9818,40.97,0
            14.9818,40.96999,0
            14.98184,40.96994,0
            14.98188,40.96991,0
            14.98192,40.96986,0
            14.98193,40.96986,0
            14.98199,40.9698,0
            14.98204,40.96976,0
            14.98208,40.96973,0
            14.98209,40.96973,0
            14.98213,40.96971,0
            14.98217,40.96969,0
            14.98218,40.96968,0
            14.98227,40.96965,0
            14.98228,40.96965,0
            14.98232,40.96964,0
            14.98237,40.96964,0
            14.98244,40.96964,0
            14.98251,40.96964,0
            14.9826,40.96965,0
            14.98263,40.96965,0
            14.98269,40.96967,0
            14.98276,40.96969,0
            14.98283,40.96972,0
            14.98297,40.96982,0
            14.983,40.96984,0
            14.983,40.96986,0
            14.98299,40.96992,0
            14.983,40.96997,0
            14.98301,40.96999,0
            14.98302,40.97007,0
            14.9831,40.97021,0
            14.98314,40.9703,0
            14.98314,40.97033,0
            14.98315,40.97038,0
            14.98315,40.97046,0
            14.98315,40.97051,0
            14.98314,40.97081,0
            14.98314,40.97087,0
            14.98312,40.97105,0
            14.9831,40.97129,0
            14.9831,40.9714,0
            14.98311,40.97151,0
            14.98313,40.97158,0
            14.98316,40.97167,0
            14.98319,40.97176,0
            14.98323,40.97188,0
            14.98325,40.97193,0
            14.98327,40.972,0
            14.98327,40.97206,0
            14.98327,40.97211,0
            14.98323,40.97221,0
            14.9832,40.97228,0
            14.98317,40.97232,0
            14.98305,40.97242,0
            14.98301,40.97246,0
            14.98249,40.97287,0
            14.98234,40.973,0
            14.98223,40.97315,0
            14.98218,40.97326,0
            14.98203,40.9736,0
            14.98196,40.97376,0
            14.98195,40.97378,0
            14.98188,40.97395,0
            14.98181,40.97412,0
            14.98181,40.97413,0
            14.98173,40.97427,0
            14.98166,40.97435,0
            14.98155,40.97442,0
            14.98137,40.97452,0
            14.98117,40.97462,0
            14.98101,40.97471,0
            14.98077,40.97481,0
            14.98072,40.97484,0
            14.98056,40.9749,0
            14.98042,40.97496,0
            14.98035,40.97498,0
            14.98005,40.97509,0
            14.97947,40.97522,0
            14.97931,40.97525,0
            14.97918,40.97527,0
            14.97901,40.9753,0
            14.97806,40.97515,0
            14.97765,40.97511,0
            14.97738,40.97506,0
            14.97737,40.97506,0
            14.97707,40.975,0
            14.97667,40.97491,0
            14.97645,40.97487,0
            14.9753,40.97465,0
            14.9752,40.97464,0
            14.97486,40.97457,0
            14.9747,40.97455,0
            14.97456,40.97454,0
            14.9744,40.97454,0
            14.97424,40.97455,0
            14.97416,40.97456,0
            14.97406,40.97459,0
            14.97397,40.97461,0
            14.97327,40.97481,0
            14.97291,40.97492,0
            14.97282,40.97493,0
            14.97259,40.97498,0
            14.97255,40.97498,0
            14.97193,40.97506,0
            14.97188,40.97507,0
            14.97165,40.97511,0
            14.97164,40.97511,0
            14.97097,40.97528,0
            14.97075,40.97534,0
            14.97067,40.97536,0
            14.97052,40.9754,0
            14.9703,40.97547,0
            14.97008,40.97554,0
            14.96964,40.97567,0
            14.96953,40.9757,0
            14.96943,40.97571,0
            14.96941,40.97571,0
            14.96936,40.97571,0
            14.96923,40.9757,0
            14.96917,40.9757,0
            14.96916,40.97569,0
            14.9691,40.97568,0
            14.96905,40.97566,0
            14.96898,40.97564,0
            14.96895,40.97563,0
            14.96893,40.97562,0
            14.96882,40.97554,0
            14.96878,40.97552,0
            14.96877,40.97551,0
            14.96871,40.97544,0
            14.96866,40.97538,0
            14.96866,40.97535,0
            14.96861,40.97525,0
            14.96859,40.97513,0
            14.96858,40.97504,0
            14.96859,40.97499,0
            14.9686,40.97493,0
            14.96862,40.97487,0
            14.96866,40.9748,0
            14.96875,40.97469,0
            14.96885,40.97458,0
            14.96892,40.97454,0
            14.96901,40.97447,0
            14.96904,40.97446,0
            14.96916,40.97441,0
            14.96933,40.97437,0
            14.96952,40.97432,0
            14.96956,40.97431,0
            14.96979,40.97426,0
            14.97002,40.97422,0
            14.971,40.97401,0
            14.97105,40.974,0
            14.97057,40.974,0
            14.97033,40.974,0
            14.97009,40.974,0
            14.96999,40.974,0
            14.96986,40.974,0
            14.96982,40.974,0
            14.96963,40.97398,0
            14.96962,40.97398,0
            14.96952,40.97395,0
            14.96942,40.97393,0
            14.96938,40.97392,0
            14.96934,40.97391,0
            14.96927,40.97388,0
            14.96916,40.97385,0
            14.96908,40.97384,0
            14.96894,40.97382,0
            14.96892,40.97382,0
            14.96886,40.9738,0
            14.96879,40.97379,0
            14.96873,40.97379,0
            14.96869,40.97379,0
            14.96864,40.97379,0
            14.96849,40.97381,0
            14.96837,40.97381,0
            14.96827,40.97379,0
            14.96824,40.97378,0
            14.96823,40.97376,0
            14.96819,40.97373,0
            14.96816,40.97368,0
            14.96811,40.97362,0
            14.96811,40.97361,0
            14.96809,40.97355,0
            14.96806,40.97343,0
            14.96805,40.97325,0
            14.96804,40.97307,0
            14.96802,40.97271,0
            14.96802,40.97253,0
            14.968,40.97226,0
            14.96797,40.97227,0
            14.96766,40.97237,0
            14.96757,40.9724,0
            14.96744,40.97245,0
            14.96733,40.97248,0
            14.96722,40.97252,0
            14.96719,40.97252,0
            14.96712,40.97253,0
            14.96708,40.97254,0
            14.967,40.97254,0
            14.96699,40.97254,0
            14.96694,40.97254,0
            14.96689,40.97253,0
            14.96688,40.97253,0
            14.96683,40.97252,0
            14.9668,40.97251,0
            14.96676,40.9725,0
            14.96675,40.97249,0
            14.96674,40.97249,0
            14.96672,40.97246,0
            14.96671,40.97244,0
            14.9667,40.97244,0
            14.96669,40.97241,0
          </coordinates>
        </LineString>
      </Placemark>
      <Placemark>
        <name>Via Vittorio Veneto, 16, 83050 San Mango Sul Calore AV, Italia</name>
        <styleUrl>#icon-1899-DB4436-nodesc</styleUrl>
        <Point>
          <coordinates>
            14.9756787,40.9625736,0
          </coordinates>
        </Point>
      </Placemark>
      <Placemark>
        <name>XXC8+XP San Mango sul Calore AV, Italia</name>
        <styleUrl>#icon-1899-DB4436-nodesc</styleUrl>
        <Point>
          <coordinates>
            14.9666886,40.9724104,0
          </coordinates>
        </Point>
      </Placemark>
    </Folder>
    <Folder>
      <name><![CDATA[Punti di interesse e correzzione strada non possibile su "percorso principalee"]]></name>
      <Placemark>
        <name>Partenza</name>
        <styleUrl>#icon-1899-0288D1-nodesc</styleUrl>
        <Point>
          <coordinates>
            14.9756879,40.9626006,0
          </coordinates>
        </Point>
      </Placemark>
      <Placemark>
        <name>Fontana monumentale</name>
        <styleUrl>#icon-1899-0288D1-nodesc</styleUrl>
        <Point>
          <coordinates>
            14.974798,40.9609167,0
          </coordinates>
        </Point>
      </Placemark>
      <Placemark>
        <name>Chiesa di San Vincenzo</name>
        <styleUrl>#icon-1899-0288D1-nodesc</styleUrl>
        <Point>
          <coordinates>
            14.9737968,40.9597187,0
          </coordinates>
        </Point>
      </Placemark>
      <Placemark>
        <name>Piazza di Padre Pio</name>
        <styleUrl>#icon-1899-0288D1-nodesc</styleUrl>
        <Point>
          <coordinates>
            14.9727614,40.9580436,0
          </coordinates>
        </Point>
      </Placemark>
      <Placemark>
        <name>Chiesa madre</name>
        <styleUrl>#icon-1899-0288D1-nodesc</styleUrl>
        <Point>
          <coordinates>
            14.9762762,40.9647217,0
          </coordinates>
        </Point>
      </Placemark>
      <Placemark>
        <name>Ponte di Annibale</name>
        <styleUrl>#icon-1899-0288D1-nodesc</styleUrl>
        <Point>
          <coordinates>
            14.9684494,40.9760436,0
          </coordinates>
        </Point>
      </Placemark>
      <Placemark>
        <name>Chiesa di Sant Anna</name>
        <styleUrl>#icon-1899-0288D1-nodesc</styleUrl>
        <Point>
          <coordinates>
            14.9665864,40.9725009,0
          </coordinates>
        </Point>
      </Placemark>
      <Placemark>
        <name>Strada che fanno i cavalli, non passano per i tornanti</name>
        <styleUrl>#line-000000-1200-nodesc</styleUrl>
        <LineString>
          <tessellate>1</tessellate>
          <coordinates>
            14.9788746,40.9693069,0
            14.9798704,40.9696917,0
          </coordinates>
        </LineString>
      </Placemark>
      <Placemark>
        <name>Altra scorciatoia</name>
        <styleUrl>#line-000000-1200-nodesc</styleUrl>
        <LineString>
          <tessellate>1</tessellate>
          <coordinates>
            14.9692593,40.975706,0
            14.9683943,40.9760806,0
            14.9671149,40.9746802,0
            14.9665436,40.9724861,0
          </coordinates>
        </LineString>
      </Placemark>
    </Folder>
    <Folder>
      <name>Scorciatoia per sant anna( non inserirlo ancora nella mappa)</name>
      <Placemark>
        <name>Scorciatoia per sant anna( non inserirlo ancora nella mappa)</name>
        <styleUrl>#line-1267FF-5000-nodesc</styleUrl>
        <LineString>
          <tessellate>1</tessellate>
          <coordinates>
            14.97382,40.967,0
            14.97367,40.96731,0
            14.97363,40.96741,0
            14.9736,40.96748,0
            14.97359,40.96752,0
            14.97352,40.96764,0
            14.97348,40.96769,0
            14.97345,40.96771,0
            14.97339,40.96777,0
            14.97337,40.96779,0
            14.97332,40.96782,0
            14.97329,40.96784,0
            14.97319,40.96791,0
            14.97315,40.96795,0
            14.97304,40.96805,0
            14.97302,40.96806,0
            14.973,40.96808,0
            14.97299,40.9681,0
            14.97299,40.96812,0
            14.97298,40.96814,0
            14.97297,40.96819,0
            14.97298,40.96822,0
            14.97298,40.96824,0
            14.97298,40.96826,0
            14.97298,40.96829,0
            14.97298,40.96832,0
            14.97299,40.96838,0
            14.97299,40.9684,0
            14.97301,40.96846,0
            14.97302,40.96852,0
            14.97304,40.96857,0
            14.97305,40.96859,0
            14.97306,40.96862,0
            14.97307,40.96864,0
            14.97309,40.96869,0
            14.97312,40.96874,0
            14.97314,40.9688,0
            14.97314,40.96885,0
            14.97314,40.96889,0
            14.97314,40.96892,0
            14.97314,40.96897,0
            14.97312,40.96905,0
            14.9731,40.9691,0
            14.97308,40.96914,0
            14.97307,40.96917,0
            14.97306,40.96918,0
            14.97303,40.96923,0
            14.97297,40.9693,0
            14.97292,40.96936,0
            14.97287,40.96941,0
            14.97285,40.96943,0
            14.97281,40.96947,0
            14.97272,40.96954,0
            14.97255,40.96967,0
            14.9725,40.96971,0
            14.97238,40.9698,0
            14.9723,40.96987,0
            14.97222,40.96994,0
            14.97211,40.97004,0
            14.97207,40.97007,0
            14.97203,40.97011,0
            14.97189,40.97019,0
            14.97183,40.97021,0
            14.9718,40.97022,0
            14.97168,40.97027,0
            14.97162,40.97029,0
            14.97146,40.97034,0
            14.97138,40.97036,0
            14.97131,40.97039,0
            14.97125,40.97042,0
            14.97121,40.97045,0
            14.9712,40.97045,0
            14.97118,40.97048,0
            14.9711,40.97054,0
            14.97109,40.97055,0
            14.97094,40.9707,0
            14.9709,40.97073,0
            14.97079,40.97084,0
            14.97075,40.97087,0
            14.97073,40.97089,0
            14.97073,40.9709,0
            14.97065,40.97098,0
            14.97029,40.97137,0
            14.97022,40.97141,0
            14.97018,40.97145,0
            14.97016,40.97147,0
            14.97008,40.97152,0
            14.97005,40.97153,0
            14.97,40.97155,0
            14.96993,40.97158,0
            14.96986,40.9716,0
            14.96982,40.97161,0
            14.96972,40.97164,0
            14.96965,40.97166,0
            14.96952,40.97168,0
            14.96951,40.97168,0
            14.96939,40.97172,0
            14.96926,40.97175,0
            14.96916,40.97178,0
            14.96908,40.97179,0
            14.96905,40.97179,0
            14.96898,40.9718,0
            14.96892,40.9718,0
            14.96883,40.9718,0
            14.96882,40.9718,0
            14.96871,40.97181,0
            14.9686,40.97181,0
            14.96858,40.97182,0
            14.96853,40.97182,0
            14.96846,40.97185,0
            14.96838,40.97189,0
            14.96837,40.9719,0
            14.9683,40.97195,0
            14.96822,40.97202,0
            14.9682,40.97203,0
            14.96812,40.9721,0
            14.96807,40.97217,0
            14.96804,40.97222,0
            14.96799,40.97226,0
            14.96766,40.97237,0
            14.96757,40.9724,0
            14.96744,40.97245,0
            14.96733,40.97248,0
            14.96722,40.97252,0
            14.96719,40.97252,0
            14.96712,40.97253,0
            14.96708,40.97254,0
            14.967,40.97254,0
            14.96699,40.97254,0
            14.96694,40.97254,0
            14.96689,40.97253,0
            14.96688,40.97253,0
            14.96683,40.97252,0
            14.9668,40.97251,0
            14.96676,40.9725,0
            14.96675,40.97249,0
            14.96674,40.97249,0
            14.96672,40.97246,0
            14.96671,40.97244,0
            14.9667,40.97244,0
            14.96669,40.97242,0
          </coordinates>
        </LineString>
      </Placemark>
      <Placemark>
        <name>Area Piano di Zona, 17, 83050 San Mango sul Calore AV, Italia</name>
        <styleUrl>#icon-1899-DB4436-nodesc</styleUrl>
        <Point>
          <coordinates>
            14.9738231,40.9669989,0
          </coordinates>
        </Point>
      </Placemark>
      <Placemark>
        <name>XXC8+XM San Mango sul Calore AV, Italia</name>
        <styleUrl>#icon-1899-DB4436-nodesc</styleUrl>
        <Point>
          <coordinates>
            14.9666921,40.9724173,0
          </coordinates>
        </Point>
      </Placemark>
    </Folder>
  </Document>
</kml>
